{
  "norad_id": 68281,
  "name": "STARLINK-37134",
  "history": [
    {
      "epoch": "2026-03-28T20:00:01.999872",
      "apogee_km": 282.185814602135,
      "perigee_km": 280.9897280332061,
      "latitude_deg": -23.991160265152487,
      "longitude_deg": 8.102222080109641,
      "semi_major_axis_km": 6659.72477131767,
      "eccentricity": 8.98e-05,
      "inclination_deg": 53.1573,
      "raan_deg": 241.5396,
      "arg_perigee_deg": 57.0049,
      "mean_anomaly_deg": 55.9564,
      "mean_motion_rev_day": 15.9741714
    },
    {
      "epoch": "2026-03-29T04:00:01.999584",
      "apogee_km": 284.1498409730211,
      "perigee_km": 283.173221308356,
      "latitude_deg": 24.62232948766677,
      "longitude_deg": 40.102221759967506,
      "semi_major_axis_km": 6661.798531140688,
      "eccentricity": 7.33e-05,
      "inclination_deg": 53.1569,
      "raan_deg": 239.8269,
      "arg_perigee_deg": 71.2462,
      "mean_anomaly_deg": 159.2968,
      "mean_motion_rev_day": 15.96671305
    }
  ]
}